[{"OBJECT_NAME":"FALCONSAT-10","OBJECT_ID":"2023-174AM","EPOCH":"2026-03-09T16:51:34.085376","MEAN_MOTION":15.26670596,"ECCENTRICITY":0.00089318,"INCLINATION":97.3865,"RA_OF_ASC_NODE":145.7938,"ARG_OF_PERICENTER":169.5942,"MEAN_ANOMALY":190.5483,"EPHEMERIS_TYPE":0,"CLASSIFICATION_TYPE":"U","NORAD_CAT_ID":58291,"ELEMENT_SET_NO":999,"REV_AT_EPOCH":12958,"BSTAR":0.00025968794,"MEAN_MOTION_DOT":6.748e-5,"MEAN_MOTION_DDOT":0},{"OBJECT_NAME":"STARLINK-31728","OBJECT_ID":"2024-071N","EPOCH":"2026-03-09T02:04:28.147296","MEAN_MOTION":15.27551096,"ECCENTRICITY":0.00019046,"INCLINATION":43.0043,"RA_OF_ASC_NODE":343.1232,"ARG_OF_PERICENTER":251.6182,"MEAN_ANOMALY":108.4463,"EPHEMERIS_TYPE":0,"CLASSIFICATION_TYPE":"U","NORAD_CAT_ID":59496,"ELEMENT_SET_NO":999,"REV_AT_EPOCH":10811,"BSTAR":0.0010473047,"MEAN_MOTION_DOT":0.00028644,"MEAN_MOTION_DDOT":0}]
